ONEWEB-0492             
1 54114U 22138B   25327.54469988  .00000046  00000+0  82694-4 0  9995
2 54114  87.9205 345.8907 0002038  88.3598 271.7768 13.19723672149719
ONEWEB-0495             
1 54115U 22138C   25327.59841321 -.00000036  00000+0 -12129-3 0  9992
2 54115  87.9200 345.8845 0002569  93.4591 266.6835 13.19726983149700
ONEWEB-0497             
1 54116U 22138D   25327.61104250  .00000048  00000+0  87881-4 0  9998
2 54116  87.9207 345.8672 0001948  92.4181 267.7174 13.19727670149690
ONEWEB-0499             
1 54117U 22138E   25327.59446544 -.00000049  00000+0 -15584-3 0  9994
2 54117  87.9206 345.8839 0001938  96.7820 263.3533 13.19727262149701
ONEWEB-0500             
1 54118U 22138F   25327.59682477 -.00000014  00000+0 -67481-4 0  9998
2 54118  87.9204 345.8706 0001811  88.5724 271.5616 13.19727737149716
ONEWEB-0501             
1 54119U 22138G   25327.62683391 -.00000110  00000+0 -30786-3 0  9993
2 54119  87.9216 345.8612 0002271  93.1312 267.0081 13.19726844149693
ONEWEB-0502             
1 54120U 22138H   25327.53680194 -.00000145  00000+0 -39352-3 0  9999
2 54120  87.9210 345.8615 0002102  94.9288 265.2085 13.19723487149702
ONEWEB-0503             
1 54121U 22138J   25327.60156260  .00000042  00000+0  71955-4 0  9990
2 54121  87.9210 345.8527 0001728 101.2502 258.8825 13.19727645149709
